BANDWAGON-4 OBJECT M    
1 66304U 25248M   26068.03503276  .00023645  00000+0  95704-3 0  9995
2 66304  45.4108 294.9904 0012944 207.5285 152.4918 15.24295413 18037
STARLINK-36047          
1 66795U 25278E   26068.53126251  .00016027  00000+0  59027-3 0  9995
2 66795  43.0018 115.3715 0001460 254.6191 105.4499 15.27601267 15187
