[{"OBJECT_NAME":"BANDWAGON-4 OBJECT M","OBJECT_ID":"2025-248M","EPOCH":"2026-03-09T00:50:26.830464","MEAN_MOTION":15.24295413,"ECCENTRICITY":0.00129441,"INCLINATION":45.4108,"RA_OF_ASC_NODE":294.9904,"ARG_OF_PERICENTER":207.5285,"MEAN_ANOMALY":152.4918,"EPHEMERIS_TYPE":0,"CLASSIFICATION_TYPE":"U","NORAD_CAT_ID":66304,"ELEMENT_SET_NO":999,"REV_AT_EPOCH":1803,"BSTAR":0.00095703617,"MEAN_MOTION_DOT":0.00023645,"MEAN_MOTION_DDOT":0},{"OBJECT_NAME":"STARLINK-36047","OBJECT_ID":"2025-278E","EPOCH":"2026-03-09T12:45:01.080864","MEAN_MOTION":15.27601267,"ECCENTRICITY":0.00014602,"INCLINATION":43.0018,"RA_OF_ASC_NODE":115.3715,"ARG_OF_PERICENTER":254.6191,"MEAN_ANOMALY":105.4499,"EPHEMERIS_TYPE":0,"CLASSIFICATION_TYPE":"U","NORAD_CAT_ID":66795,"ELEMENT_SET_NO":999,"REV_AT_EPOCH":1518,"BSTAR":0.00059027417,"MEAN_MOTION_DOT":0.00016027,"MEAN_MOTION_DDOT":0}]
